[{"OBJECT_NAME":"STARLINK-5576","OBJECT_ID":"2023-013BD","EPOCH":"2026-03-08T16:42:38.652480","MEAN_MOTION":15.02539135,"ECCENTRICITY":0.00012251,"INCLINATION":43.0045,"RA_OF_ASC_NODE":318.4067,"ARG_OF_PERICENTER":265.3874,"MEAN_ANOMALY":94.6829,"EPHEMERIS_TYPE":0,"CLASSIFICATION_TYPE":"U","NORAD_CAT_ID":55382,"ELEMENT_SET_NO":999,"REV_AT_EPOCH":17141,"BSTAR":5.6539268e-5,"MEAN_MOTION_DOT":5.6e-6,"MEAN_MOTION_DDOT":0},{"OBJECT_NAME":"NOAA 17 DEB","OBJECT_ID":"2002-032BW","EPOCH":"2026-03-08T22:40:23.580768","MEAN_MOTION":15.05196658,"ECCENTRICITY":0.00149213,"INCLINATION":98.7181,"RA_OF_ASC_NODE":121.0481,"ARG_OF_PERICENTER":217.4424,"MEAN_ANOMALY":142.5761,"EPHEMERIS_TYPE":0,"CLASSIFICATION_TYPE":"U","NORAD_CAT_ID":48737,"ELEMENT_SET_NO":999,"REV_AT_EPOCH":26108,"BSTAR":0.0055556624,"MEAN_MOTION_DOT":0.00080221,"MEAN_MOTION_DDOT":0}]
